218P/LINEAR,e,2.7271,175.7053,59.8828,3.080031,0.1823356,0.62738591,233.8512,04/12.0/2024,2000,g 16.0,4.0
# From MPEC 2024-F91
219P/LINEAR,e,11.5400,230.9531,107.6314,3.645206,0.1416188,0.35398709,8.2362,04/12.0/2024,2000,g 11.0,4.0
# From MPEC 2024-A43
220P/McNaught,e,8.1238,150.1042,180.6126,3.118973,0.1789314,0.50076159,218.1101,04/12.0/2024,2000,g 15.0,4.0
# From MPEC 2022-UY9
221P/LINEAR,e,11.5177,229.5962,39.4769,3.436981,0.1546815,0.50047450,130.3324,04/12.0/2024,2000,g 14.5,4.0
# From MPC 92277
222P/LINEAR,e,5.0961,6.7845,346.2842,2.897528,0.1998309,0.71468781,353.8265,04/12.0/2024,2000,g 20.0,4.0
# From MPEC 2023-A50
223P/Skiff,e,27.0121,346.7413,37.9339,4.158283,0.1162339,0.41653313,220.7240,04/12.0/2024,2000,g 12.0,4.0
# From MPEC 2023-BF4
224P/LINEAR-NEAT,e,13.3055,40.0382,16.7512,3.445481,0.1541094,0.40586855,86.2804,04/12.0/2024,2000,g 15.5,4.0
# From MPEC 2024-F91
225P/LINEAR,e,21.3660,14.2018,3.9001,3.647444,0.1414885,0.63844340,35.0863,04/12.0/2024,2000,g 18.0,4.0
# From MPEC 2023-EF7
226P/Pigott-LINEAR-Kowalski,e,44.0462,54.0121,341.0471,3.767406,0.1347847,0.52921031,14.3973,04/12.0/2024,2000,g 12.5,4.0
# From MPEC 2024-F34
227P/Catalina-LINEAR,e,7.5086,36.8082,105.5702,3.435952,0.1547510,0.52746086,5.3776,04/12.0/2024,2000,g 16.5,2.0
# From MPEC 2022-HC2
228P/LINEAR,e,7.9134,30.9755,114.7390,4.164467,0.1159752,0.17679946,173.5165,04/12.0/2024,2000,g 14.1,4.0
# From MPC106349
229P/Gibbs,e,26.0997,157.9347,224.1223,3.923918,0.1268014,0.37796730,318.4504,04/12.0/2024,2000,g 13.0,4.0
# From MPEC 2023-KD6
230P/LINEAR,e,15.4689,106.9475,313.5253,3.454130,0.1535310,0.54566614,115.8327,04/12.0/2024,2000,g 13.0,4.0
# From MPEC 2023-SQ0
231P/LINEAR-NEAT,e,12.2746,132.8658,44.0593,4.054532,0.1207238,0.24076508,213.7651,04/12.0/2024,2000,g 14.5,2.0
# From MPC112394
232P/Hill,e,14.6442,56.0290,53.2179,4.472369,0.1042072,0.33558995,190.8865,04/12.0/2024,2000,g 11.5,4.0
# From MPEC 2021-N06
233P/La Sagra,e,11.2889,74.9011,26.9856,3.027318,0.1871186,0.41273047,240.9553,04/12.0/2024,2000,g 15.0,4.0
# From MPEC 2024-DC6
234P/LINEAR,e,11.5356,179.5667,357.4196,3.795743,0.1332781,0.25682699,334.0668,04/12.0/2024,2000,g 12.0,4.0
# From MPC110497
235P/LINEAR,e,9.6759,204.0376,347.7933,3.507878,0.1500159,0.40813314,263.7603,04/12.0/2024,2000,g 12.0,4.0
# From MPEC 2023-J29
236P/LINEAR,e,16.3556,245.5692,119.3950,3.725888,0.1370438,0.50930910,319.1942,04/12.0/2024,2000,g 14.0,4.0
# From MPEC 2024-DC6
237P/LINEAR,e,14.0170,245.3548,25.3067,3.510957,0.1498186,0.43388216,49.9273,04/12.0/2024,2000,g 14.5,2.0
# From MPEC 2023-UR6
238P/Read,e,1.2640,51.6335,324.2467,3.166039,0.1749563,0.25115230,118.3773,04/12.0/2024,2000,g 14.5,4.0
# From MPEC 2021-F20
239P/LINEAR,e,11.3078,255.9469,220.3433,4.465639,0.1044429,0.63103822,200.4166,04/12.0/2024,2000,g 17.5,2.0
# From MPEC 2023-CD7
240P/NEAT,e,23.5369,74.9159,352.0092,3.862017,0.1298622,0.45029907,279.8888,04/12.0/2024,2000,g 11.0,4.0
# From MPEC 2022-J42
241P/LINEAR,e,21.0957,305.4649,111.5176,4.924924,0.0901789,0.61045428,89.3497,04/12.0/2024,2000,g 13.5,4.0
# From MPEC 2024-BE0
242P/Spahr,e,32.4600,180.3615,244.8693,5.529002,0.0758113,0.28168261,340.6426,04/12.0/2024,2000,g  8.0,4.0
# From MPEC 2022-K19
243P/NEAT,e,7.6435,87.6493,283.6587,3.828559,0.1315683,0.36057247,269.9702,04/12.0/2024,2000,g 12.5,4.0
# From MPEC 2024-F34
244P/Scotti,e,2.2588,354.0079,93.2811,4.900507,0.0908537,0.19978992,46.3687,04/12.0/2024,2000,g  9.0,4.0
# From MPEC 2022-CN4
245P/WISE,e,21.1766,316.8899,316.5591,4.050073,0.1209233,0.45569003,273.1304,04/12.0/2024,2000,g 14.0,4.0
# From MPEC 2024-C04
246P/NEAT,e,17.1098,74.9458,182.6880,4.091464,0.1190929,0.28090553,135.9268,04/12.0/2024,2000,g 10.5,4.0
# From MPEC 2021-F20
247P/LINEAR,e,13.6590,54.0097,47.4399,3.965780,0.1247990,0.62530348,244.3040,04/12.0/2024,2000,g 16.5,2.0
# From MPC 75730
248P/Gibbs,e,6.3513,207.8174,209.9277,5.985583,0.0673045,0.63935366,324.9440,04/12.0/2024,2000,g 14.0,4.0
# From MPEC 2022-YN2
249P/LINEAR,e,8.3854,239.0452,65.7520,2.764475,0.2144298,0.81937543,296.5948,04/12.0/2024,2000,g 15.5,4.0
# From MPC110497
250P/Larson,e,13.1562,73.2885,45.9262,3.775206,0.1343671,0.39871659,306.2175,04/12.0/2024,2000,g 14.5,4.0
# From MPC104795
251P/LINEAR,e,23.3870,219.3228,31.2389,3.513702,0.1496431,0.50442976,8.7946,04/12.0/2024,2000,g 16.5,2.0
# From MPEC 2021-S45
252P/LINEAR,e,10.4159,190.9077,343.3864,3.051247,0.1849218,0.67082164,186.1491,04/12.0/2024,2000,g 17.5,4.0
# From MPEC 2020-FB5
253P/PANSTARRS,e,4.9454,146.9089,230.7612,3.462247,0.1529914,0.41457294,330.6315,04/12.0/2024,2000,g 14.5,4.0
# From MPEC 2024-EF7
254P/McNaught,e,32.5498,129.1873,219.7386,4.618335,0.0993061,0.31908346,128.1064,04/12.0/2024,2000,g 11.0,4.0
# From NK 2214
255P/Levy,e,13.4005,275.6380,186.0326,2.942452,0.1952720,0.71185076,113.7092,04/12.0/2024,2000,g  9.0,4.0
# From MPEC 2023_O39
256P/LINEAR,e,27.6236,81.3278,124.1434,4.637668,0.0986858,0.41786430,39.1727,04/12.0/2024,2000,g 14.0,2.0
# From MPEC 2023-A50
257P/Catalina,e,20.2194,207.7157,117.7829,3.766228,0.1348479,0.42928281,176.6800,04/12.0/2024,2000,g 11.5,4.0
# From MPEC 2021-U31
258P/PANSTARRS,e,6.7496,126.2321,25.6117,4.391150,0.1071116,0.20893481,149.4077,04/12.0/2024,2000,g 13.0,4.0
# From MPC106349
259P/Garradd,e,15.8985,51.3711,257.5432,2.728800,0.2186485,0.33881835,173.6328,04/12.0/2024,2000,g 15.5,4.0
# From MPEC 2022-O01
260P/McNaught,e,15.0499,349.3359,18.4707,3.623442,0.1428967,0.60911399,239.2942,04/12.0/2024,2000,g 13.5,4.0
# From MPEC 2021-J28
261P/Larson,e,6.0722,291.0646,67.3448,3.490354,0.1511471,0.42307079,265.6488,04/12.0/2024,2000,g 14.0,4.0
# From MPC 82322
262P/McNaught-Russell,e,29.2768,217.8887,171.0606,6.869798,0.0547379,0.81634334,226.6397,04/12.0/2024,2000,g 13.5,4.0
# From MPEC 2023_O39
263P/Gibbs,e,11.5240,105.5015,35.0326,3.041419,0.1858189,0.59369804,81.2739,04/12.0/2024,2000,g 18.0,4.0
# From MPC114608
264P/Larsen,e,25.6753,219.5884,341.9383,3.996229,0.1233754,0.34751239,228.5322,04/12.0/2024,2000,g 13.0,4.0
# From MPC 79870
265P/LINEAR,e,14.3544,342.9482,33.5163,4.259008,0.1121350,0.64731298,129.8286,04/12.0/2024,2000,g 14.5,4.0
# From MPEC 2021-F20
266P/Christensen,e,3.4273,4.9653,97.7024,3.529591,0.1486338,0.34059235,215.9198,04/12.0/2024,2000,g 14.7,4.0
# From MPC114608
267P/LONEOS,e,6.1428,228.5993,114.2338,3.208946,0.1714591,0.61421805,357.8031,04/12.0/2024,2000,g 19.5,4.0
# From MPC 92277
268P/Bernardi,e,15.6325,124.7542,359.9579,4.635313,0.0987610,0.47293099,335.3419,04/12.0/2024,2000,g 14.0,4.0
# From MPEC 2023-J29
269P/Jedicke,e,7.0845,241.7720,225.6647,7.062531,0.0525126,0.43279754,182.6182,04/12.0/2024,2000,g 10.0,4.0
# From MPC 88332
270P/Gehrels,e,2.9252,223.0383,209.8339,6.653131,0.0574335,0.46994721,226.9269,04/12.0/2024,2000,g  8.0,4.0
# From MPC 92277
271P/van Houten-Lemmon,e,6.8705,9.3247,36.5062,7.032954,0.0528442,0.39615745,206.8514,04/12.0/2024,2000,g 11.0,4.0
# From MPEC 2023-D41
272P/NEAT,e,18.0765,109.4456,27.8836,4.461855,0.1045757,0.45514811,66.3971,04/12.0/2024,2000,g 16.0,2.0
# From MPC 82723
273P/Pons-Gambart,e,136.5654,320.4054,20.2110,31.99243,0.0054467,0.97438888,0.0000,12/22.0831/2012,2000,g 11.5,4.0
# From MPEC 2023-M14
274P/Tombaugh-Tenagra,e,15.8195,81.3186,38.4722,4.377962,0.1075960,0.43993753,79.0148,04/12.0/2024,2000,g 13.9,4.0
# From MPC 81862
275P/Hermann,e,21.2585,348.6939,173.9239,5.788909,0.0707634,0.71335548,294.2269,04/12.0/2024,2000,g 17.0,4.0
# From MPEC 2024-BE0
276P/Vorobjov,e,14.8118,211.3406,199.3315,5.336732,0.0799449,0.26948243,340.5467,04/12.0/2024,2000,g 11.5,4.0
# From MPEC 2021-F20
277P/LINEAR,e,16.7875,276.2706,152.3906,3.853544,0.1302908,0.50644301,156.0881,04/12.0/2024,2000,g 15.1,4.0
# From MPEC 2021-S45
278P/McNaught,e,6.6753,15.1631,237.5311,3.670550,0.1401546,0.44060509,183.1213,04/12.0/2024,2000,g 14.0,4.0
# From MPEC 2024-A43
279P/LaSagra,e,5.0492,346.1535,5.7685,3.573013,0.1459326,0.39932667,52.3612,04/12.0/2024,2000,g 14.0,4.0
# From MPEC 2023-J95
280P/Larsen,e,11.7732,131.3754,104.7172,4.527614,0.1023057,0.41691125,25.7180,04/12.0/2024,2000,g 12.5,4.0
# From MPEC 2023-D41
281P/MOSS,e,4.7176,87.1697,26.7715,4.882469,0.0913576,0.17359593,39.7041,04/12.0/2024,2000,g 11.0,4.0
# From MPC133426
282P/,e,5.8122,217.6160,9.2335,4.236937,0.1130124,0.18769619,101.8413,04/12.0/2024,2000,g 13.5,2.0
# From MPEC 2022-K19
283P/Spacewatch,e,14.4600,161.1213,22.1716,4.133459,0.1172826,0.48443576,111.1018,04/12.0/2024,2000,g 16.0,2.0
# From MPEC 2024-D33
284P/McNaught,e,11.8574,144.2689,202.4734,3.677535,0.1397555,0.37486740,131.7524,04/12.0/2024,2000,g 13.0,4.0
# From MPEC 2023-B57
285P/LINEAR,e,25.0372,185.5040,178.3894,4.506069,0.1030404,0.61843547,46.9708,04/12.0/2024,2000,g 15.0,4.0
# From MPEC 2024-BE0
286P/Christensen,e,17.1010,283.6474,24.7140,4.102442,0.1186152,0.42697513,83.1518,04/12.0/2024,2000,g 14.0,4.0
# From MPEC 2024-A43
287P/Christensen,e,16.3161,139.0215,189.2811,4.168172,0.1158206,0.27191589,32.4590,04/12.0/2024,2000,g 13.5,4.0
# From MPC133426
288P/,e,3.2383,83.1065,280.2897,3.049109,0.1851163,0.20015210,142.9816,04/12.0/2024,2000,g 16.0,2.0
# From MPEC 2023-HD1
289P/Blanpain,e,5.9003,68.8926,9.8599,3.044410,0.1855451,0.68640351,291.8435,04/12.0/2024,2000,g 19.7,4.0
# From MPC 95214
290P/Jager,e,20.0499,302.6788,181.8221,6.215994,0.0635972,0.62784194,237.4010,04/12.0/2024,2000,g 10.5,4.0
# From MPEC 2024-EF7
291P/NEAT,e,6.3098,237.6602,173.5102,4.533718,0.1020992,0.43414299,35.1195,04/12.0/2024,2000,g 13.0,4.0
# From MPEC 2022-K19
292P/Li,e,24.3147,90.9006,319.6132,6.098507,0.0654438,0.59000275,243.1251,04/12.0/2024,2000,g 12.5,4.0
# From MPEC 2022-L66
293P/Spacewatch,e,9.0614,78.3664,40.9485,3.639119,0.1419743,0.41905413,171.6927,04/12.0/2024,2000,g 14.5,4.0
# From MPEC 2020-SI8
294P/LINEAR,e,18.1472,311.4812,235.7394,3.193429,0.1727103,0.60104449,275.9727,04/12.0/2024,2000,g 15.5,4.0
# From MPEC 2022-K19
295P/LINEAR,e,21.0775,7.4063,72.9643,5.302345,0.0807239,0.61756042,292.8605,04/12.0/2024,2000,g 12.0,4.0
# From MPEC 2021-N06
